NORAD_CAT_ID,OBJECT_NAME,OBJECT_TYPE,EPOCH,MEAN_MOTION,ECCENTRICITY,INCLINATION,RA_OF_ASC_NODE,ARG_OF_PERICENTER,MEAN_ANOMALY,BSTAR,MEAN_MOTION_DOT,MEAN_MOTION_DDOT,TLE_LINE0,TLE_LINE1,TLE_LINE2,SEMIMAJOR_AXIS,PERIOD,APOGEE,PERIGEE,DECAYED
52686.0,STARLINK-4005,PAYLOAD,2022-06-01 04:00:00,15.73244363,0.0001845,53.2144,229.8488,32.8564,226.7173,-0.00027621,-0.0003928,0.0,0 STARLINK-4005,1 52686U 22053AG  22152.16667824 -.00039280  00000-0 -27621-3 0  9996,2 52686  53.2144 229.8488 0001845  32.8564 226.7173 15.73244363  2485,6727.769,91.531,350.875,348.392,0.0
52686.0,STARLINK-4005,PAYLOAD,2022-06-01 20:00:01,15.73203225,0.000215,53.2143,226.5511,28.5264,48.9626,-0.00014473,-0.00020888,0.0,0 STARLINK-4005,1 52686U 22053AG  22152.83334491 -.00020888  00000-0 -14473-3 0  9996,2 52686  53.2143 226.5511 0002150  28.5264  48.9626 15.73203225  1303,6727.886,91.533,351.19699999999995,348.30400000000014,0.0
52686.0,STARLINK-4005,PAYLOAD,2022-06-02 17:01:03,15.732382,0.0002052,53.2142,222.2165,21.8227,338.288,0.00016914,0.00023222,0.0,0 STARLINK-4005,1 52686U 22053AG  22153.70906993  .00023222  00000-0  16914-3 0  9990,2 52686  53.2142 222.2165 0002052  21.8227 338.2880 15.73238200  2721,6727.786,91.531,351.032,348.271,0.0
52686.0,STARLINK-4005,PAYLOAD,2022-06-03 09:47:20,15.73227992,0.0002152,53.2147,218.7594,28.4494,331.6643,8.531600000000001e-05,0.00011383,0.0,0 STARLINK-4005,1 52686U 22053AG  22154.40787265  .00011383  00000-0  85316-4 0  9995,2 52686  53.2147 218.7594 0002152  28.4494 331.6643 15.73227992  2834,6727.815,91.532,351.12800000000016,348.233,0.0
52686.0,STARLINK-4005,PAYLOAD,2022-06-03 12:50:17,15.73242542,0.0001847,53.2145,218.1291,22.0454,338.0645,0.0001138,0.00015409,0.0,0 STARLINK-4005,1 52686U 22053AG  22154.53492387  .00015409  00000-0  11380-3 0  9999,2 52686  53.2145 218.1291 0001847  22.0454 338.0645 15.73242542  2859,6727.774,91.531,350.88199999999995,348.396,0.0
52686.0,STARLINK-4005,PAYLOAD,2022-06-04 10:11:01,15.73209889,0.0002473,53.2145,213.7287,26.5682,333.5465,4.263100000000001e-05,5.368e-05,0.0,0 STARLINK-4005,1 52686U 22053AG  22155.42432079  .00005368  00000-0  42631-4 0  9997,2 52686  53.2145 213.7287 0002473  26.5682 333.5465 15.73209889  2995,6727.8669999999975,91.533,351.396,348.0680000000001,0.0
52686.0,STARLINK-4005,PAYLOAD,2022-06-04 13:13:59,15.73206799,0.0002376,53.2144,213.0993,26.6397,333.4745,7.268199999999999e-05,9.594e-05,0.0,0 STARLINK-4005,1 52686U 22053AG  22155.55137763  .00009594  00000-0  72682-4 0  9997,2 52686  53.2144 213.0993 0002376  26.6397 333.4745 15.73206799  3401,6727.876,91.533,351.339,348.142,0.0
52686.0,STARLINK-4005,PAYLOAD,2022-06-05 20:00:01,15.73180083,0.0002344,53.2145,206.7558,19.8723,44.9076,1.5919e-05,1.611e-05,0.0,0 STARLINK-4005,1 52686U 22053AG  22156.83334491  .00001611  00000-0  15919-4 0  9998,2 52686  53.2145 206.7558 0002344  19.8723  44.9076 15.73180083  3217,6727.9519999999975,91.534,351.394,348.24,0.0
52686.0,STARLINK-4005,PAYLOAD,2022-06-05 22:00:00,15.73163452,0.0002298,53.2147,206.3429,20.092,156.9189,0.00032418,0.00045052,0.0,0 STARLINK-4005,1 52686U 22053AG  22156.91667824  .00045052  00000-0  32418-3 0  9995,2 52686  53.2147 206.3429 0002298  20.0920 156.9189 15.73163452  1301,6727.999,91.535,351.41,348.3180000000001,0.0
52686.0,STARLINK-4005,PAYLOAD,2022-06-06 14:00:01,15.7321984,0.0002607,53.2148,203.0459,18.5407,336.3040000000001,-0.00014843,-0.00021422,0.0,0 STARLINK-4005,1 52686U 22053AG  22157.58334491 -.00021422  00000-0 -14843-3 0  9999,2 52686  53.2148 203.0459 0002607  18.5407 336.3040 15.73219840  3333,6727.839,91.532,351.458,347.95,0.0
52686.0,STARLINK-4005,PAYLOAD,2022-06-06 22:00:00,15.73163483,0.0002304,53.2148,201.3943,17.093,66.7136,0.00041135,0.00057419,0.0,0 STARLINK-4005,1 52686U 22053AG  22157.91667824  .00057419  00000-0  41135-3 0  9992,2 52686  53.2148 201.3943 0002304  17.0930  66.7136 15.73163483  1307,6727.999,91.535,351.414,348.314,0.0
52686.0,STARLINK-4005,PAYLOAD,2022-06-07 06:00:00,15.7322261,0.0002362,53.2149,199.7455,18.388,154.3249,2.0346e-05,2.237e-05,0.0,0 STARLINK-4005,1 52686U 22053AG  22158.25001157  .00002237  00000-0  20346-4 0  9991,2 52686  53.2149 199.7455 0002362  18.3880 154.3249 15.73222610  3431,6727.831,91.532,351.285,348.107,0.0
52686.0,STARLINK-4005,PAYLOAD,2022-06-07 14:00:01,15.73218501,0.0002565,53.2147,198.0973,13.6008,248.0778,-8.3966e-05,-0.000124,0.0,0 STARLINK-4005,1 52686U 22053AG  22158.58334491 -.00012400  00000-0 -83966-4 0  9999,2 52686  53.2147 198.0973 0002565  13.6008 248.0778 15.73218501  1307,6727.842,91.532,351.43300000000005,347.982,0.0
52686.0,STARLINK-4005,PAYLOAD,2022-06-07 22:00:00,15.73296749,0.0002433,53.2161,196.4469,14.1049,336.4958,-0.0015803,-0.00217712,0.0,0 STARLINK-4005,1 52686U 22053AG  22158.91667824 -.00217712  00000-0 -15803-2 0  9991,2 52686  53.2161 196.4469 0002433  14.1049 336.4958 15.73296749  1302,6727.619000000002,91.528,351.121,347.848,0.0
52686.0,STARLINK-4005,PAYLOAD,2022-06-08 06:00:02,15.73206249,0.0002532,53.2155,194.7967,20.3187,59.3037,8.889700000000001e-05,0.00011877,0.0,0 STARLINK-4005,1 52686U 22053AG  22159.25002315  .00011877  00000-0  88897-4 0  9994,2 52686  53.2155 194.7967 0002532  20.3187  59.3037 15.73206249  3599,6727.877,91.533,351.446,348.039,0.0
52686.0,STARLINK-4005,PAYLOAD,2022-06-08 14:00:01,15.73225403,0.0002719,53.2151,193.1486,17.5762,150.9088,-0.00026581,-0.00037808,0.0,0 STARLINK-4005,1 52686U 22053AG  22159.58334491 -.00037808  00000-0 -26581-3 0  9998,2 52686  53.2151 193.1486 0002719  17.5762 150.9088 15.73225403  1302,6727.823,91.532,351.517,347.858,0.0
52686.0,STARLINK-4005,PAYLOAD,2022-06-08 20:00:01,15.73178774,0.0002534,53.2153,191.9097,17.5971,127.599,-7.1362e-05,-0.00010617,0.0,0 STARLINK-4005,1 52686U 22053AG  22159.83334491 -.00010617  00000-0 -71362-4 0  9993,2 52686  53.2153 191.9097 0002534  17.5971 127.5990 15.73178774  3688,6727.956,91.534,351.526,348.116,0.0
52686.0,STARLINK-4005,PAYLOAD,2022-06-08 22:00:01,15.73171913,0.0002479,53.2152,191.497,17.7114,239.7787,-4.9505e-05,-7.556e-05,0.0,0 STARLINK-4005,1 52686U 22053AG  22159.91668981 -.00007556  00000-0 -49505-4 0  9998,2 52686  53.2152 191.4970 0002479  17.7114 239.7787 15.73171913  1306,6727.975,91.535,351.5080000000001,348.172,0.0
52686.0,STARLINK-4005,PAYLOAD,2022-06-09 14:00:01,15.73145457,0.0002837,53.2147,188.2004,21.6351,53.563,0.00044185,0.0006171,0.0,0 STARLINK-4005,1 52686U 22053AG  22160.58334491  .00061710  00000-0  44185-3 0  9997,2 52686  53.2147 188.2004 0002837  21.6351  53.5630 15.73145457  1300,6728.051,91.536,351.824,348.00699999999995,0.0
52686.0,STARLINK-4005,PAYLOAD,2022-06-09 22:00:00,15.73155919,0.00026,53.215,186.5488,23.8355,140.2576,0.00054164,0.00075949,0.0,0 STARLINK-4005,1 52686U 22053AG  22160.91667824  .00075949  00000-0  54164-3 0  9990,2 52686  53.2150 186.5488 0002600  23.8355 140.2576 15.73155919  3856,6728.021,91.536,351.635,348.13699999999994,0.0
52686.0,STARLINK-4005,PAYLOAD,2022-06-10 14:00:01,15.73253605,0.000291,53.2148,183.2514,21.3883,320.5714,-0.00012392,-0.00018021,0.0,0 STARLINK-4005,1 52686U 22053AG  22161.58334491 -.00018021  00000-0 -12392-3 0  9992,2 52686  53.2148 183.2514 0002910  21.3883 320.5714 15.73253605  3960,6727.7419999999975,91.53,351.565,347.65,0.0
52686.0,STARLINK-4005,PAYLOAD,2022-06-10 22:00:00,15.73200352,0.0002568,53.2148,181.5997,21.5441,49.4216,0.00024168,0.00033436,0.0,0 STARLINK-4005,1 52686U 22053AG  22161.91667824  .00033436  00000-0  24168-3 0  9997,2 52686  53.2148 181.5997 0002568  21.5441  49.4216 15.73200352  1308,6727.894,91.533,351.487,348.031,0.0
52686.0,STARLINK-4005,PAYLOAD,2022-06-11 06:00:00,15.73205644,0.0002679,53.2146,179.9515,18.3169,141.5933,-0.00022799,-0.00032509,0.0,0 STARLINK-4005,1 52686U 22053AG  22162.25001157 -.00032509  00000-0 -22799-3 0  9996,2 52686  53.2146 179.9515 0002679  18.3169 141.5933 15.73205644  4062,6727.879,91.533,351.546,347.94199999999995,0.0
52686.0,STARLINK-4005,PAYLOAD,2022-06-11 14:00:01,15.73197484,0.0002754,53.214,178.3027,15.6791,233.1565,0.0002978,0.0004138,0.0,0 STARLINK-4005,1 52686U 22053AG  22162.58334491  .00041380  00000-0  29780-3 0  9994,2 52686  53.2140 178.3027 0002754  15.6791 233.1565 15.73197484  4120,6727.901999999999,91.533,351.62,347.914,0.0
52686.0,STARLINK-4005,PAYLOAD,2022-06-11 22:00:00,15.73221065,0.0002492,53.2143,176.6509,16.1951,321.591,-0.00013214,-0.00019144,0.0,0 STARLINK-4005,1 52686U 22053AG  22162.91667824 -.00019144  00000-0 -13214-3 0  9990,2 52686  53.2143 176.6509 0002492  16.1951 321.5910 15.73221065  1308,6727.835,91.532,351.37699999999984,348.024,0.0
52686.0,STARLINK-4005,PAYLOAD,2022-06-12 04:00:00,15.7320599,0.0002583,53.2146,175.4146,16.8196,297.6793,4.7479e-05,6.049e-05,0.0,0 STARLINK-4005,1 52686U 22053AG  22163.16667824  .00006049  00000-0  47479-4 0  9997,2 52686  53.2146 175.4146 0002583  16.8196 297.6793 15.73205990  4218,6727.878000000002,91.533,351.481,348.005,0.0
52686.0,STARLINK-4005,PAYLOAD,2022-06-12 14:00:01,15.7320516,0.0002846,53.2141,173.3537,17.8705,137.7998,-0.00018955,-0.0002715,0.0,0 STARLINK-4005,1 52686U 22053AG  22163.58334491 -.00027150  00000-0 -18955-3 0  9998,2 52686  53.2141 173.3537 0002846  17.8705 137.7998 15.73205160  1300,6727.88,91.533,351.66,347.831,0.0
52686.0,STARLINK-4005,PAYLOAD,2022-06-12 22:00:00,15.73170866,0.0002609,53.214,171.7022,21.6832,222.9218,0.00063893,0.0008991,0.0,0 STARLINK-4005,1 52686U 22053AG  22163.91667824  .00089910  00000-0  63893-3 0  9995,2 52686  53.2140 171.7022 0002609  21.6832 222.9218 15.73170866  1307,6727.978,91.535,351.599,348.088,0.0
52686.0,STARLINK-4005,PAYLOAD,2022-06-13 12:00:00,15.73198905,0.0002793,53.2135,168.8178,15.7456,294.5508,0.00046119,0.00064609,0.0,0 STARLINK-4005,1 52686U 22053AG  22164.50001157  .00064609  00000-0  46119-3 0  9992,2 52686  53.2135 168.8178 0002793  15.7456 294.5508 15.73198905  4427,6727.898,91.533,351.642,347.884,0.0
